{"type": "FeatureCollection", "features": [ {"type": "Feature", "properties": {"norad_id": 34538, "name": "IRIDIUM 33 DEB", "group": "iridium-33-debris", "lat": -22.079235894591882, "lon": -179.3856385434843, "alt_km": 748.915599055902, "timestamp": "2025-12-27T11:23:20.286439+00:00", "meta": {"OBJECT_NAME": "IRIDIUM 33 DEB", "OBJECT_ID": "1997-051JF", "EPOCH": "2025-12-26T18:05:01.336416", "MEAN_MOTION": 14.42730445, "ECCENTRICITY": 0.0031825, "INCLINATION": 86.2767, "RA_OF_ASC_NODE": 359.4165, "ARG_OF_PERICENTER": 279.2395, "MEAN_ANOMALY": 140.4767, "EPHEMERIS_TYPE": 0, "CLASSIFICATION_TYPE": "U", "NORAD_CAT_ID": 34538, "ELEMENT_SET_NO": 999, "REV_AT_EPOCH": 87958, "BSTAR": 0.00099526831, "MEAN_MOTION_DOT": 3.352e-05, "MEAN_MOTION_DDOT": 0}, "tle": {"line1": "1 34538U 97051JF  25360.75348769  .00003352  00000+0  99527-3 0  9997", "line2": "2 34538  86.2767 359.4165 0031825 279.2395 140.4767 14.42730445879580"}}, "geometry": {"type": "Point", "coordinates": [-179.3856385434843, -22.079235894591882]}}, {"type": "Feature", "properties": {"norad_id": 34540, "name": "IRIDIUM 33 DEB", "group": "iridium-33-debris", "lat": -16.91174641150903, "lon": 121.99389509721748, "alt_km": 647.2736491654186, "timestamp": "2025-12-27T11:23:20.286450+00:00", "meta": {"OBJECT_NAME": "IRIDIUM 33 DEB", "OBJECT_ID": "1997-051JH", "EPOCH": "2025-12-27T02:26:44.045088", "MEAN_MOTION": 14.75620073, "ECCENTRICITY": 0.001856, "INCLINATION": 86.3107, "RA_OF_ASC_NODE": 301.0402, "ARG_OF_PERICENTER": 111.9699, "MEAN_ANOMALY": 266.3781, "EPHEMERIS_TYPE": 0, "CLASSIFICATION_TYPE": "U", "NORAD_CAT_ID": 34540, "ELEMENT_SET_NO": 999, "REV_AT_EPOCH": 89233, "BSTAR": 0.0019663, "MEAN_MOTION_DOT": 0.00013489, "MEAN_MOTION_DDOT": 0}, "tle": {"line1": "1 34540U 97051JH  25361.10189867  .00013489  00000+0  19663-2 0  9996", "line2": "2 34540  86.3107 301.0402 0018560 111.9699 266.3781 14.75620073892332"}}, "geometry": {"type": "Point", "coordinates": [121.99389509721748, -16.91174641150903]}}, {"type": "Feature", "properties": {"norad_id": 34648, "name": "IRIDIUM 33 DEB", "group": "iridium-33-debris", "lat": -24.642122419326288, "lon": 97.65550970784224, "alt_km": 770.956209035433, "timestamp": "2025-12-27T11:23:20.286460+00:00", "meta": {"OBJECT_NAME": "IRIDIUM 33 DEB", "OBJECT_ID": "1997-051JZ", "EPOCH": "2025-12-26T17:23:51.360000", "MEAN_MOTION": 14.11887507, "ECCENTRICITY": 0.01778864, "INCLINATION": 86.3901, "RA_OF_ASC_NODE": 276.2989, "ARG_OF_PERICENTER": 254.825, "MEAN_ANOMALY": 103.3201, "EPHEMERIS_TYPE": 0, "CLASSIFICATION_TYPE": "U", "NORAD_CAT_ID": 34648, "ELEMENT_SET_NO": 999, "REV_AT_EPOCH": 85158, "BSTAR": 0.0061458154, "MEAN_MOTION_DOT": 0.00013057, "MEAN_MOTION_DDOT": 0}, "tle": {"line1": "1 34648U 97051JZ  25360.72490000  .00013057  00000+0  61458-2 0  9996", "line2": "2 34648  86.3901 276.2989 0177886 254.8250 103.3201 14.11887507851589"}}, "geometry": {"type": "Point", "coordinates": [97.65550970784224, -24.642122419326288]}}, {"type": "Feature", "properties": {"norad_id": 34651, "name": "IRIDIUM 33 DEB", "group": "iridium-33-debris", "lat": -61.33521714636295, "lon": 127.47842816688589, "alt_km": 891.0310684308333, "timestamp": "2025-12-27T11:23:20.286470+00:00", "meta": {"OBJECT_NAME": "IRIDIUM 33 DEB", "OBJECT_ID": "1997-051KC", "EPOCH": "2025-12-25T15:53:57.959232", "MEAN_MOTION": 14.26027654, "ECCENTRICITY": 0.0142018, "INCLINATION": 86.2827, "RA_OF_ASC_NODE": 135.0795, "ARG_OF_PERICENTER": 163.1805, "MEAN_ANOMALY": 197.4168, "EPHEMERIS_TYPE": 0, "CLASSIFICATION_TYPE": "U", "NORAD_CAT_ID": 34651, "ELEMENT_SET_NO": 999, "REV_AT_EPOCH": 86080, "BSTAR": 0.0036817, "MEAN_MOTION_DOT": 9.797e-05, "MEAN_MOTION_DDOT": 0}, "tle": {"line1": "1 34651U 97051KC  25359.66247638  .00009797  00000+0  36817-2 0  9995", "line2": "2 34651  86.2827 135.0795 0142018 163.1805 197.4168 14.26027654860809"}}, "geometry": {"type": "Point", "coordinates": [127.47842816688589, -61.33521714636295]}}, {"type": "Feature", "properties": {"norad_id": 34652, "name": "IRIDIUM 33 DEB", "group": "iridium-33-debris", "lat": 74.35251162495366, "lon": 140.20073224943235, "alt_km": 692.6403246199752, "timestamp": "2025-12-27T11:23:20.286488+00:00", "meta": {"OBJECT_NAME": "IRIDIUM 33 DEB", "OBJECT_ID": "1997-051KD", "EPOCH": "2025-12-26T21:54:14.287104", "MEAN_MOTION": 14.62189264, "ECCENTRICITY": 0.0025481, "INCLINATION": 86.332, "RA_OF_ASC_NODE": 333.6903, "ARG_OF_PERICENTER": 246.0109, "MEAN_ANOMALY": 143.6409, "EPHEMERIS_TYPE": 0, "CLASSIFICATION_TYPE": "U", "NORAD_CAT_ID": 34652, "ELEMENT_SET_NO": 999, "REV_AT_EPOCH": 88691, "BSTAR": 0.0011443, "MEAN_MOTION_DOT": 5.808e-05, "MEAN_MOTION_DDOT": 0}, "tle": {"line1": "1 34652U 97051KD  25360.91266536  .00005808  00000+0  11443-2 0  9991", "line2": "2 34652  86.3320 333.6903 0025481 246.0109 143.6409 14.62189264886915"}}, "geometry": {"type": "Point", "coordinates": [140.20073224943235, 74.35251162495366]}}, {"type": "Feature", "properties": {"norad_id": 34690, "name": "IRIDIUM 33 DEB", "group": "iridium-33-debris", "lat": -42.69724873705984, "lon": 27.235187325941553, "alt_km": 709.5502657278994, "timestamp": "2025-12-27T11:23:20.286509+00:00", "meta": {"OBJECT_NAME": "IRIDIUM 33 DEB", "OBJECT_ID": "1997-051KM", "EPOCH": "2025-12-26T19:53:36.427776", "MEAN_MOTION": 14.55146043, "ECCENTRICITY": 0.00092349, "INCLINATION": 86.3773, "RA_OF_ASC_NODE": 30.867, "ARG_OF_PERICENTER": 341.6712, "MEAN_ANOMALY": 195.6004, "EPHEMERIS_TYPE": 0, "CLASSIFICATION_TYPE": "U", "NORAD_CAT_ID": 34690, "ELEMENT_SET_NO": 999, "REV_AT_EPOCH": 88299, "BSTAR": 0.00044241179, "MEAN_MOTION_DOT": 1.932e-05, "MEAN_MOTION_DDOT": 0}, "tle": {"line1": "1 34690U 97051KM  25360.82889384  .00001932  00000+0  44241-3 0  9992", "line2": "2 34690  86.3773  30.8670 0009234 341.6712 195.6004 14.55146043882998"}}, "geometry": {"type": "Point", "coordinates": [27.235187325941553, -42.69724873705984]}}, {"type": "Feature", "properties": {"norad_id": 34693, "name": "IRIDIUM 33 DEB", "group": "iridium-33-debris", "lat": -3.0776316968444917, "lon": -63.71376258953345, "alt_km": 468.81215289957254, "timestamp": "2025-12-27T11:23:20.286521+00:00", "meta": {"OBJECT_NAME": "IRIDIUM 33 DEB", "OBJECT_ID": "1997-051KQ", "EPOCH": "2025-12-26T19:48:57.228768", "MEAN_MOTION": 15.31583943, "ECCENTRICITY": 0.00088429, "INCLINATION": 86.3049, "RA_OF_ASC_NODE": 296.8095, "ARG_OF_PERICENTER": 29.7643, "MEAN_ANOMALY": 351.8395, "EPHEMERIS_TYPE": 0, "CLASSIFICATION_TYPE": "U", "NORAD_CAT_ID": 34693, "ELEMENT_SET_NO": 999, "REV_AT_EPOCH": 89130, "BSTAR": 0.005056928, "MEAN_MOTION_DOT": 0.00157281, "MEAN_MOTION_DDOT": 0}, "tle": {"line1": "1 34693U 97051KQ  25360.82566237  .00157281  00000+0  50569-2 0  9992", "line2": "2 34693  86.3049 296.8095 0008842  29.7643 351.8395 15.31583943891306"}}, "geometry": {"type": "Point", "coordinates": [-63.71376258953345, -3.0776316968444917]}}, {"type": "Feature", "properties": {"norad_id": 34696, "name": "IRIDIUM 33 DEB", "group": "iridium-33-debris", "lat": -76.73946790846882, "lon": 4.2211402617637415, "alt_km": 732.1431966311247, "timestamp": "2025-12-27T11:23:20.286531+00:00", "meta": {"OBJECT_NAME": "IRIDIUM 33 DEB", "OBJECT_ID": "1997-051KT", "EPOCH": "2025-12-27T02:10:03.448416", "MEAN_MOTION": 14.65770071, "ECCENTRICITY": 0.0073771, "INCLINATION": 86.1861, "RA_OF_ASC_NODE": 20.8432, "ARG_OF_PERICENTER": 119.2353, "MEAN_ANOMALY": 297.1257, "EPHEMERIS_TYPE": 0, "CLASSIFICATION_TYPE": "U", "NORAD_CAT_ID": 34696, "ELEMENT_SET_NO": 999, "REV_AT_EPOCH": 86883, "BSTAR": 0.0050796, "MEAN_MOTION_DOT": 0.00028933, "MEAN_MOTION_DDOT": 0}, "tle": {"line1": "1 34696U 97051KT  25361.09031769  .00028933  00000+0  50796-2 0  9995", "line2": "2 34696  86.1861  20.8432 0073771 119.2353 297.1257 14.65770071868832"}}, "geometry": {"type": "Point", "coordinates": [4.2211402617637415, -76.73946790846882]}}, {"type": "Feature", "properties": {"norad_id": 34765, "name": "IRIDIUM 33 DEB", "group": "iridium-33-debris", "lat": -68.86760317295423, "lon": 16.89917842470511, "alt_km": 771.7051118394184, "timestamp": "2025-12-27T11:23:20.286542+00:00", "meta": {"OBJECT_NAME": "IRIDIUM 33 DEB", "OBJECT_ID": "1997-051LJ", "EPOCH": "2025-12-27T02:00:13.091040", "MEAN_MOTION": 14.40501375, "ECCENTRICITY": 0.0016993, "INCLINATION": 86.3377, "RA_OF_ASC_NODE": 26.6052, "ARG_OF_PERICENTER": 163.84, "MEAN_ANOMALY": 260.2304, "EPHEMERIS_TYPE": 0, "CLASSIFICATION_TYPE": "U", "NORAD_CAT_ID": 34765, "ELEMENT_SET_NO": 999, "REV_AT_EPOCH": 87820, "BSTAR": 0.00044426, "MEAN_MOTION_DOT": 1.435e-05, "MEAN_MOTION_DDOT": 0}, "tle": {"line1": "1 34765U 97051LJ  25361.08348485  .00001435  00000+0  44426-3 0  9999", "line2": "2 34765  86.3377  26.6052 0016993 163.8400 260.2304 14.40501375878204"}}, "geometry": {"type": "Point", "coordinates": [16.89917842470511, -68.86760317295423]}}, {"type": "Feature", "properties": {"norad_id": 34833, "name": "IRIDIUM 33 DEB", "group": "iridium-33-debris", "lat": -51.758515610140925, "lon": 40.05064378164762, "alt_km": 728.5271321549899, "timestamp": "2025-12-27T11:23:20.286552+00:00", "meta": {"OBJECT_NAME": "IRIDIUM 33 DEB", "OBJECT_ID": "1997-051MH", "EPOCH": "2025-12-27T03:36:29.185056", "MEAN_MOTION": 14.52459738, "ECCENTRICITY": 0.0021088, "INCLINATION": 86.3923, "RA_OF_ASC_NODE": 44.7821, "ARG_OF_PERICENTER": 54.3467, "MEAN_ANOMALY": 359.944, "EPHEMERIS_TYPE": 0, "CLASSIFICATION_TYPE": "U", "NORAD_CAT_ID": 34833, "ELEMENT_SET_NO": 999, "REV_AT_EPOCH": 87924, "BSTAR": 0.00081314, "MEAN_MOTION_DOT": 3.345e-05, "MEAN_MOTION_DDOT": 0}, "tle": {"line1": "1 34833U 97051MH  25361.15033779  .00003345  00000+0  81314-3 0  9999", "line2": "2 34833  86.3923  44.7821 0021088  54.3467 359.9440 14.52459738879240"}}, "geometry": {"type": "Point", "coordinates": [40.05064378164762, -51.758515610140925]}}]}